NORAD_CAT_ID,OBJECT_NAME,OBJECT_TYPE,EPOCH,MEAN_MOTION,ECCENTRICITY,INCLINATION,RA_OF_ASC_NODE,ARG_OF_PERICENTER,MEAN_ANOMALY,BSTAR,MEAN_MOTION_DOT,MEAN_MOTION_DDOT,TLE_LINE0,TLE_LINE1,TLE_LINE2,SEMIMAJOR_AXIS,PERIOD,APOGEE,PERIGEE,DECAYED
52458.0,STARLINK-3898,PAYLOAD,2022-09-21 05:46:16,15.0883534,0.000185,53.2196,349.9332,54.3104,305.806,-3.108e-06,-3.38e-06,0.0,0 STARLINK-3898,1 52458U 22049H   22264.24047017 -.00000338  00000-0 -31080-5 0  9995,2 52458  53.2196 349.9332 0001850  54.3104 305.8060 15.08835340 21233,6917.895,95.438,541.039,538.48,0.0
52458.0,STARLINK-3898,PAYLOAD,2022-09-21 07:21:39,15.08838485,0.0001921999999999,53.2198,349.6373,51.1824,308.9339,-1.7004000000000002e-05,-5.59e-06,0.0,0 STARLINK-3898,1 52458U 22049H   22264.30670927 -.00000559  00000-0 -17004-4 0  9998,2 52458  53.2198 349.6373 0001922  51.1824 308.9339 15.08838485 21080,6917.885,95.438,541.08,538.42,0.0
52458.0,STARLINK-3898,PAYLOAD,2022-09-22 02:26:16,15.08862255,0.000196,53.22,346.0701,44.4653,315.6496,-0.00031154,-5.246e-05,0.0,0 STARLINK-3898,1 52458U 22049H   22265.10158218 -.00005246  00000-0 -31154-3 0  9990,2 52458  53.2200 346.0701 0001960  44.4653 315.6496 15.08862255 21369,6917.812,95.436,541.033,538.321,0.0
52458.0,STARLINK-3898,PAYLOAD,2022-09-22 07:12:27,15.08829121,0.0001989,53.2199,345.1781,43.857,316.258,8.572e-05,1.076e-05,0.0,0 STARLINK-3898,1 52458U 22049H   22265.30031283  .00001076  00000-0  85720-4 0  9998,2 52458  53.2199 345.1781 0001989  43.8570 316.2580 15.08829121 21238,6917.9140000000025,95.438,541.155,538.403,0.0
52458.0,STARLINK-3898,PAYLOAD,2022-09-23 02:17:04,15.08838989,0.0001277,53.2209,341.6066,40.9977,319.1111,7.460399999999999e-05,9e-06,0.0,0 STARLINK-3898,1 52458U 22049H   22266.09518741  .00000900  00000-0  74604-4 0  9998,2 52458  53.2209 341.6066 0001277  40.9977 319.1111 15.08838989 21511,6917.8830000000025,95.438,540.632,538.865,0.0
52458.0,STARLINK-3898,PAYLOAD,2022-09-23 11:49:23,15.08836192,0.0001878,53.22,339.8258,43.2924,316.8216,8.8225e-06,-1.48e-06,0.0,0 STARLINK-3898,1 52458U 22049H   22266.49263390 -.00000148  00000-0  88225-5 0  9999,2 52458  53.2200 339.8258 0001878  43.2924 316.8216 15.08836192 21412,6917.892,95.438,541.056,538.4580000000002,0.0
52458.0,STARLINK-3898,PAYLOAD,2022-09-23 21:21:41,15.08934804,0.0002276999999999,53.2199,338.0416,37.6004,322.5147,-0.0010424,-0.00016884,0.0,0 STARLINK-3898,1 52458U 22049H   22266.89006572 -.00016884  00000-0 -10424-2 0  9998,2 52458  53.2199 338.0416 0002277  37.6004 322.5147 15.08934804 21636,6917.590999999999,95.432,541.031,537.88,0.0
52458.0,STARLINK-3898,PAYLOAD,2022-09-24 10:04:47,15.08839781,0.0001916999999999,53.2199,335.6623,42.3292,317.7848,1.0673e-05,-1.18e-06,0.0,0 STARLINK-3898,1 52458U 22049H   22267.41999081 -.00000118  00000-0  10673-4 0  9993,2 52458  53.2199 335.6623 0001917  42.3292 317.7848 15.08839781 21554,6917.880999999999,95.438,541.072,538.42,0.0
52458.0,STARLINK-3898,PAYLOAD,2022-09-24 21:12:28,15.08843302,0.0001878,53.2197,333.5808,40.7104,319.4028,0.00010974,1.459e-05,0.0,0 STARLINK-3898,1 52458U 22049H   22267.88366303  .00001459  00000-0  10974-3 0  9990,2 52458  53.2197 333.5808 0001878  40.7104 319.4028 15.08843302 21782,6917.87,95.437,541.034,538.436,0.0
52458.0,STARLINK-3898,PAYLOAD,2022-09-25 11:30:57,15.08835834,0.0001975,53.2199,330.907,43.5722,316.5426,3.1796e-05,2.18e-06,0.0,0 STARLINK-3898,1 52458U 22049H   22268.47983215  .00000218  00000-0  31796-4 0  9991,2 52458  53.2199 330.9070 0001975  43.5722 316.5426 15.08835834 21715,6917.893,95.438,541.124,538.3919999999998,0.0
52458.0,STARLINK-3898,PAYLOAD,2022-09-26 08:10:58,15.08837535,0.0002026,53.219,327.0398,39.3979,320.716,3.3033e-07,-2.83e-06,0.0,0 STARLINK-3898,1 52458U 22049H   22269.34095286 -.00000283  00000-0  33033-6 0  9991,2 52458  53.2190 327.0398 0002026  39.3979 320.7160 15.08837535 21847,6917.888000000001,95.438,541.154,538.351,0.0
52458.0,STARLINK-3898,PAYLOAD,2022-09-27 01:40:13,15.08826875,0.0002026999999999,53.2191,323.7687,38.8363,321.2774,-2.1135e-05,-6.24e-06,0.0,0 STARLINK-3898,1 52458U 22049H   22270.06960244 -.00000624  00000-0 -21135-4 0  9995,2 52458  53.2191 323.7687 0002027  38.8363 321.2774 15.08826875 22117,6917.920999999999,95.438,541.188,538.383,0.0
52458.0,STARLINK-3898,PAYLOAD,2022-09-27 11:12:32,15.08835484,0.0002035,53.2195,321.9849,41.2746,318.84,3.4016e-05,2.53e-06,0.0,0 STARLINK-3898,1 52458U 22049H   22270.46703772  .00000253  00000-0  34016-4 0  9998,2 52458  53.2195 321.9849 0002035  41.2746 318.8400 15.08835484 22173,6917.894,95.438,541.1669999999998,538.351,0.0
52458.0,STARLINK-3898,PAYLOAD,2022-09-28 03:06:22,15.08845692,0.0002014,53.2195,319.0116,38.6995,321.4141,0.00011264,1.505e-05,0.0,0 STARLINK-3898,1 52458U 22049H   22271.12942860  .00001505  00000-0  11264-3 0  9995,2 52458  53.2195 319.0116 0002014  38.6995 321.4141 15.08845692 22276,6917.863,95.437,541.121,538.335,0.0
52458.0,STARLINK-3898,PAYLOAD,2022-09-28 12:38:41,15.08839345,0.0002063,53.2191,317.2269,39.4937,320.6205,9.871e-05,1.283e-05,0.0,0 STARLINK-3898,1 52458U 22049H   22271.52687295  .00001283  00000-0  98710-4 0  9992,2 52458  53.2191 317.2269 0002063  39.4937 320.6205 15.08839345 22179,6917.882,95.438,541.175,538.32,0.0
52458.0,STARLINK-3898,PAYLOAD,2022-09-29 09:18:43,15.08835615,0.000202,53.2188,313.3613,42.5109,317.6039,2.8203e-05,1.61e-06,0.0,0 STARLINK-3898,1 52458U 22049H   22272.38799950  .00000161  00000-0  28203-4 0  9993,2 52458  53.2188 313.3613 0002020  42.5109 317.6039 15.08835615 22306,6917.894,95.438,541.156,538.361,0.0
52458.0,STARLINK-3898,PAYLOAD,2022-09-29 20:26:25,15.08828737,0.0001702,53.218,311.2801,47.5332,312.5804,-8.3436e-05,-1.615e-05,0.0,0 STARLINK-3898,1 52458U 22049H   22272.85168847 -.00001615  00000-0 -83436-4 0  9996,2 52458  53.2180 311.2801 0001702  47.5332 312.5804 15.08828737 22371,6917.915,95.438,540.957,538.602,0.0
52458.0,STARLINK-3898,PAYLOAD,2022-09-30 09:09:30,15.08838348,0.0001989,53.2193,308.9016,42.2061,317.9084,-5.6248e-05,-1.183e-05,0.0,0 STARLINK-3898,1 52458U 22049H   22273.38160342 -.00001183  00000-0 -56248-4 0  9998,2 52458  53.2193 308.9016 0001989  42.2061 317.9084 15.08838348 22451,6917.885,95.438,541.126,538.374,0.0
52458.0,STARLINK-3898,PAYLOAD,2022-10-01 02:38:44,15.08842233,0.0002126999999999,53.2182,305.6294,43.2492,316.8667,0.00014032,1.946e-05,0.0,0 STARLINK-3898,1 52458U 22049H   22274.11023493  .00001946  00000-0  14032-3 0  9994,2 52458  53.2182 305.6294 0002127  43.2492 316.8667 15.08842233 22728,6917.874,95.437,541.21,538.2669999999998,0.0
52458.0,STARLINK-3898,PAYLOAD,2022-10-01 09:00:16,15.08847939,0.0002106,53.2185,304.4403,42.9301,317.1855,0.00017824,2.55e-05,0.0,0 STARLINK-3898,1 52458U 22049H   22274.37519000  .00002550  00000-0  17824-3 0  9990,2 52458  53.2185 304.4403 0002106  42.9301 317.1855 15.08847939 22600,6917.856,95.437,541.178,538.264,0.0
52458.0,STARLINK-3898,PAYLOAD,2022-10-02 05:40:18,15.08836186,0.0002121,53.219,300.5751,38.2076,321.9066,0.00012849,1.757e-05,0.0,0 STARLINK-3898,1 52458U 22049H   22275.23631948  .00001757  00000-0  12849-3 0  9992,2 52458  53.2190 300.5751 0002121  38.2076 321.9066 15.08836186 22893,6917.892,95.438,541.224,538.29,0.0
52458.0,STARLINK-3898,PAYLOAD,2022-10-02 08:51:05,15.08825304,0.0001998,53.2187,299.9805,39.565,320.5487,-2.7215e-05,-7.21e-06,0.0,0 STARLINK-3898,1 52458U 22049H   22275.36881077 -.00000721  00000-0 -27215-4 0  9992,2 52458  53.2187 299.9805 0001998  39.5650 320.5487 15.08825304 22750,6917.925,95.438,541.173,538.408,0.0
52458.0,STARLINK-3898,PAYLOAD,2022-10-02 18:23:23,15.08831907,0.0002008,53.2193,298.1966,41.1026,319.0117,-4.075e-05,-9.37e-06,0.0,0 STARLINK-3898,1 52458U 22049H   22275.76624949 -.00000937  00000-0 -40750-4 0  9997,2 52458  53.2193 298.1966 0002008  41.1026 319.0117 15.08831907 22811,6917.905,95.438,541.159,538.381,0.0
52458.0,STARLINK-3898,PAYLOAD,2022-10-03 02:20:19,15.088428099999998,0.0002078,53.2182,296.7083,35.6371,324.476,-8.6393e-05,-1.663e-05,0.0,0 STARLINK-3898,1 52458U 22049H   22276.09744488 -.00001663  00000-0 -86393-4 0  9995,2 52458  53.2182 296.7083 0002078  35.6371 324.4760 15.08842810 23024,6917.871999999999,95.437,541.174,538.299,0.0
52458.0,STARLINK-3898,PAYLOAD,2022-10-03 08:41:51,15.0885075,0.0002043,53.2188,295.52,39.7887,320.3255,8.8449e-06,-1.47e-06,0.0,0 STARLINK-3898,1 52458U 22049H   22276.36239709 -.00000147  00000-0  88449-5 0  9990,2 52458  53.2188 295.5200 0002043  39.7887 320.3255 15.08850750 22909,6917.848000000001,95.437,541.126,538.299,0.0
52458.0,STARLINK-3898,PAYLOAD,2022-10-03 18:14:09,15.088556900000002,0.0002098,53.2184,293.7347,38.3387,321.7754,0.00015305,2.149e-05,0.0,0 STARLINK-3898,1 52458U 22049H   22276.75982907  .00002149  00000-0  15305-3 0  9990,2 52458  53.2184 293.7347 0002098  38.3387 321.7754 15.08855690 22960,6917.831999999999,95.437,541.149,538.246,0.0
52458.0,STARLINK-3898,PAYLOAD,2022-10-04 08:32:37,15.0885297,0.0002112,53.2178,291.0587,37.071,323.0428,0.00039462,6e-05,0.0,0 STARLINK-3898,1 52458U 22049H   22277.35599318  .00006000  00000-0  39462-3 0  9997,2 52458  53.2178 291.0587 0002112  37.0710 323.0428 15.08852970 23055,6917.840999999999,95.437,541.1669999999998,538.245,0.0
52458.0,STARLINK-3898,PAYLOAD,2022-10-04 18:04:56,15.08847637,0.0002086999999999,53.2177,289.2749,39.8659,320.2486,0.00019031,2.743e-05,0.0,0 STARLINK-3898,1 52458U 22049H   22277.75343377  .00002743  00000-0  19031-3 0  9993,2 52458  53.2177 289.2749 0002087  39.8659 320.2486 15.08847637 23277,6917.857,95.437,541.1659999999998,538.278,0.0
52458.0,STARLINK-3898,PAYLOAD,2022-10-05 08:23:24,15.08844875,0.0002124,53.218,286.5984,41.1931,318.9222,1.7204e-05,-1.4e-07,0.0,0 STARLINK-3898,1 52458U 22049H   22278.34959394 -.00000014  00000-0  17204-4 0  9992,2 52458  53.2180 286.5984 0002124  41.1931 318.9222 15.08844875 23366,6917.865,95.437,541.2,538.261,0.0
